{
	"type" 		: "FeatureCollection", 
	"name" 		: "Admin_Prov", 
	"features"  : [
		{
			"type" 		: "Feature",
			"geometry" 	: {
				"type" 			: "Polygon",
				"coordinates" 	: [[
					[111.69161095200012,-6.753840726999975],
					[111.61925503500012,-6.821625642999944],
					[111.61920162200006,-6.821607073000006],
					[111.61015316400021,-7.143398226999935],
					[111.42604061800009,-7.312661612999964],
					[111.20831297700013,-7.244931659999924],
					[111.11906433100016,-7.423327885999946],
					[111.2725448350002,-7.93983741100001],
					[110.95322417500023,-8.062421765999954],
					[110.90871303000002,-8.21095985599997],
					[110.82964094500015,-8.201578865999963],
					[110.7856063990002,-7.816842044999987],
					[110.53176879900016,-7.798240641999936],
					[110.44607544000019,-7.541897270999957],
					[110.1435089020001,-7.645124400999929],
					[110.00293705400017,-7.8879987409999615],
					[109.08855000000008,-7.687709999999985],
					[108.78546000000011,-7.735739999999939],
					[108.7228775490001,-7.430495171000022],
					[108.5576248670001,-7.193068881000013],
					[108.714111328125,-7.134521484375],
					[108.78009033203125,-6.875],
					[108.8330900000001,-6.769159999999978],
					[109.12356000000013,-6.84744999999997],
					[109.56184000000013,-6.8303999999999405],
					[109.99885000000015,-6.922349999999959],
					[110.47556000000002,-6.921260000000011],
					[110.66432000000009,-6.502349999999961],
					[111.04700000000005,-6.425079999999987],
					[111.14890000000008,-6.6582300000000245],
					[111.49268000000012,-6.6206700000000325],
					[111.69161095200012,-6.753840726999975]
				]]
			},
			"properties" 	: {
				"PROVINSI" 	: "JAWA TENGAH",
				"REGION" 	: "",
				"NEGARA" 	: "",
				"IBU_PROV" 	: "",
				"ID" 		: "33"
			}
		}
	]
}